SL-16 R/B               
1 22285U 92093B   25319.25299760  .00000301  00000+0  17841-3 0  9999
2 22285  71.0217 244.4930 0002593 148.9823 211.1453 14.15426273696967
COSMOS 2228             
1 22286U 92094A   25319.47899834  .00003877  00000+0  33770-3 0  9993
2 22286  82.5188 346.6174 0017155 331.1866  28.8407 14.96554066758973
SL-16 R/B               
1 22566U 93016B   25319.49406712  .00000409  00000+0  23469-3 0  9992
2 22566  71.0062  95.0239 0008974 147.4906 212.6771 14.15282637686012
COSMOS 2242             
1 22626U 93024A   25319.21265904  .00002726  00000+0  24065-3 0  9991
2 22626  82.5217  16.1502 0015568 335.2052  24.8419 14.95949540763278
SL-16 R/B               
1 22803U 93059B   25319.27565638  .00000305  00000+0  17464-3 0  9995
2 22803  70.9901 252.3977 0016325  17.0449 343.1220 14.17207445663320
ARIANE 40 R/B           
1 22830U 93061H   25319.45280661  .00000566  00000+0  22368-3 0  9996
2 22830  98.5111  25.4751 0009645 261.1004  98.9088 14.32776801677746
COSMOS 2278             
1 23087U 94023A   25319.44816169  .00000513  00000+0  29282-3 0  9991
2 23087  71.0547  54.1061 0009894 214.5758 145.4722 14.14340779628657
SL-16 R/B               
1 23088U 94023B   25319.40543985 -.00000154  00000+0 -54699-4 0  9995
2 23088  70.9992 310.8901 0001289 155.1945 204.9240 14.14992044629928
SL-16 R/B               
1 23343U 94074B   25318.55435802  .00001076  00000+0  15140-3 0  9997
2 23343  97.7242 348.9745 0005437 228.1611 292.8365 14.79242736670225
SL-16 R/B               
1 23405U 94077B   25319.21963353  .00000211  00000+0  13247-3 0  9996
2 23405  70.9828 233.3065 0004140 306.8735  53.2008 14.15546589600038
ARIANE 40+ R/B          
1 23561U 95021B   25319.21516134  .00000741  00000+0  25074-3 0  9999
2 23561  98.4684  27.1323 0007793 121.2749 302.9589 14.39664877602771
SL-16 R/B               
1 23705U 95058B   25319.50360274 -.00000128  00000+0 -41219-4 0  9994
2 23705  71.0228  59.9842 0014972 290.2779  69.6734 14.15476623551695
