CCSDS_OMM_VERS = 2.0
CREATION_DATE  = 
ORIGINATOR     = 

OBJECT_NAME    = SL-16 R/B
OBJECT_ID      = 1992-093B
CENTER_NAME    = EARTH
REF_FRAME      = TEME
TIME_SYSTEM    = UTC
MEAN_ELEMENT_THEORY = SGP/SGP4

EPOCH          = 2025-11-15T06:04:18.992640
MEAN_MOTION    = 14.15426273
ECCENTRICITY   = .0002593
INCLINATION    = 71.0217
RA_OF_ASC_NODE = 244.4930
ARG_OF_PERICENTER = 148.9823
MEAN_ANOMALY   = 211.1453

EPHEMERIS_TYPE = 0
CLASSIFICATION_TYPE = U
NORAD_CAT_ID   = 22285
ELEMENT_SET_NO = 999
REV_AT_EPOCH   = 69696
BSTAR          = .17841E-3
MEAN_MOTION_DOT = .301E-5
MEAN_MOTION_DDOT = 0

CCSDS_OMM_VERS = 2.0
CREATION_DATE  = 
ORIGINATOR     = 

OBJECT_NAME    = COSMOS 2228
OBJECT_ID      = 1992-094A
CENTER_NAME    = EARTH
REF_FRAME      = TEME
TIME_SYSTEM    = UTC
MEAN_ELEMENT_THEORY = SGP/SGP4

EPOCH          = 2025-11-15T11:29:45.456576
MEAN_MOTION    = 14.96554066
ECCENTRICITY   = .0017155
INCLINATION    = 82.5188
RA_OF_ASC_NODE = 346.6174
ARG_OF_PERICENTER = 331.1866
MEAN_ANOMALY   = 28.8407

EPHEMERIS_TYPE = 0
CLASSIFICATION_TYPE = U
NORAD_CAT_ID   = 22286
ELEMENT_SET_NO = 999
REV_AT_EPOCH   = 75897
BSTAR          = .3377E-3
MEAN_MOTION_DOT = .3877E-4
MEAN_MOTION_DDOT = 0

CCSDS_OMM_VERS = 2.0
CREATION_DATE  = 
ORIGINATOR     = 

OBJECT_NAME    = SL-16 R/B
OBJECT_ID      = 1993-016B
CENTER_NAME    = EARTH
REF_FRAME      = TEME
TIME_SYSTEM    = UTC
MEAN_ELEMENT_THEORY = SGP/SGP4

EPOCH          = 2025-11-15T11:51:27.399168
MEAN_MOTION    = 14.15282637
ECCENTRICITY   = .0008974
INCLINATION    = 71.0062
RA_OF_ASC_NODE = 95.0239
ARG_OF_PERICENTER = 147.4906
MEAN_ANOMALY   = 212.6771

EPHEMERIS_TYPE = 0
CLASSIFICATION_TYPE = U
NORAD_CAT_ID   = 22566
ELEMENT_SET_NO = 999
REV_AT_EPOCH   = 68601
BSTAR          = .23469E-3
MEAN_MOTION_DOT = .409E-5
MEAN_MOTION_DDOT = 0

CCSDS_OMM_VERS = 2.0
CREATION_DATE  = 
ORIGINATOR     = 

OBJECT_NAME    = COSMOS 2242
OBJECT_ID      = 1993-024A
CENTER_NAME    = EARTH
REF_FRAME      = TEME
TIME_SYSTEM    = UTC
MEAN_ELEMENT_THEORY = SGP/SGP4

EPOCH          = 2025-11-15T05:06:13.741056
MEAN_MOTION    = 14.95949540
ECCENTRICITY   = .0015568
INCLINATION    = 82.5217
RA_OF_ASC_NODE = 16.1502
ARG_OF_PERICENTER = 335.2052
MEAN_ANOMALY   = 24.8419

EPHEMERIS_TYPE = 0
CLASSIFICATION_TYPE = U
NORAD_CAT_ID   = 22626
ELEMENT_SET_NO = 999
REV_AT_EPOCH   = 76327
BSTAR          = .24065E-3
MEAN_MOTION_DOT = .2726E-4
MEAN_MOTION_DDOT = 0

CCSDS_OMM_VERS = 2.0
CREATION_DATE  = 
ORIGINATOR     = 

OBJECT_NAME    = SL-16 R/B
OBJECT_ID      = 1993-059B
CENTER_NAME    = EARTH
REF_FRAME      = TEME
TIME_SYSTEM    = UTC
MEAN_ELEMENT_THEORY = SGP/SGP4

EPOCH          = 2025-11-15T06:36:56.711232
MEAN_MOTION    = 14.17207445
ECCENTRICITY   = .0016325
INCLINATION    = 70.9901
RA_OF_ASC_NODE = 252.3977
ARG_OF_PERICENTER = 17.0449
MEAN_ANOMALY   = 343.1220

EPHEMERIS_TYPE = 0
CLASSIFICATION_TYPE = U
NORAD_CAT_ID   = 22803
ELEMENT_SET_NO = 999
REV_AT_EPOCH   = 66332
BSTAR          = .17464E-3
MEAN_MOTION_DOT = .305E-5
MEAN_MOTION_DDOT = 0

CCSDS_OMM_VERS = 2.0
CREATION_DATE  = 
ORIGINATOR     = 

OBJECT_NAME    = ARIANE 40 R/B
OBJECT_ID      = 1993-061H
CENTER_NAME    = EARTH
REF_FRAME      = TEME
TIME_SYSTEM    = UTC
MEAN_ELEMENT_THEORY = SGP/SGP4

EPOCH          = 2025-11-15T10:52:02.491104
MEAN_MOTION    = 14.32776801
ECCENTRICITY   = .0009645
INCLINATION    = 98.5111
RA_OF_ASC_NODE = 25.4751
ARG_OF_PERICENTER = 261.1004
MEAN_ANOMALY   = 98.9088

EPHEMERIS_TYPE = 0
CLASSIFICATION_TYPE = U
NORAD_CAT_ID   = 22830
ELEMENT_SET_NO = 999
REV_AT_EPOCH   = 67774
BSTAR          = .22368E-3
MEAN_MOTION_DOT = .566E-5
MEAN_MOTION_DDOT = 0

CCSDS_OMM_VERS = 2.0
CREATION_DATE  = 
ORIGINATOR     = 

OBJECT_NAME    = COSMOS 2278
OBJECT_ID      = 1994-023A
CENTER_NAME    = EARTH
REF_FRAME      = TEME
TIME_SYSTEM    = UTC
MEAN_ELEMENT_THEORY = SGP/SGP4

EPOCH          = 2025-11-15T10:45:21.170016
MEAN_MOTION    = 14.14340779
ECCENTRICITY   = .0009894
INCLINATION    = 71.0547
RA_OF_ASC_NODE = 54.1061
ARG_OF_PERICENTER = 214.5758
MEAN_ANOMALY   = 145.4722

EPHEMERIS_TYPE = 0
CLASSIFICATION_TYPE = U
NORAD_CAT_ID   = 23087
ELEMENT_SET_NO = 999
REV_AT_EPOCH   = 62865
BSTAR          = .29282E-3
MEAN_MOTION_DOT = .513E-5
MEAN_MOTION_DDOT = 0

CCSDS_OMM_VERS = 2.0
CREATION_DATE  = 
ORIGINATOR     = 

OBJECT_NAME    = SL-16 R/B
OBJECT_ID      = 1994-023B
CENTER_NAME    = EARTH
REF_FRAME      = TEME
TIME_SYSTEM    = UTC
MEAN_ELEMENT_THEORY = SGP/SGP4

EPOCH          = 2025-11-15T09:43:50.003040
MEAN_MOTION    = 14.14992044
ECCENTRICITY   = .0001289
INCLINATION    = 70.9992
RA_OF_ASC_NODE = 310.8901
ARG_OF_PERICENTER = 155.1945
MEAN_ANOMALY   = 204.9240

EPHEMERIS_TYPE = 0
CLASSIFICATION_TYPE = U
NORAD_CAT_ID   = 23088
ELEMENT_SET_NO = 999
REV_AT_EPOCH   = 62992
BSTAR          = -.54699E-4
MEAN_MOTION_DOT = -.154E-5
MEAN_MOTION_DDOT = 0

CCSDS_OMM_VERS = 2.0
CREATION_DATE  = 
ORIGINATOR     = 

OBJECT_NAME    = SL-16 R/B
OBJECT_ID      = 1994-074B
CENTER_NAME    = EARTH
REF_FRAME      = TEME
TIME_SYSTEM    = UTC
MEAN_ELEMENT_THEORY = SGP/SGP4

EPOCH          = 2025-11-14T13:18:16.532928
MEAN_MOTION    = 14.79242736
ECCENTRICITY   = .0005437
INCLINATION    = 97.7242
RA_OF_ASC_NODE = 348.9745
ARG_OF_PERICENTER = 228.1611
MEAN_ANOMALY   = 292.8365

EPHEMERIS_TYPE = 0
CLASSIFICATION_TYPE = U
NORAD_CAT_ID   = 23343
ELEMENT_SET_NO = 999
REV_AT_EPOCH   = 67022
BSTAR          = .1514E-3
MEAN_MOTION_DOT = .1076E-4
MEAN_MOTION_DDOT = 0

CCSDS_OMM_VERS = 2.0
CREATION_DATE  = 
ORIGINATOR     = 

OBJECT_NAME    = SL-16 R/B
OBJECT_ID      = 1994-077B
CENTER_NAME    = EARTH
REF_FRAME      = TEME
TIME_SYSTEM    = UTC
MEAN_ELEMENT_THEORY = SGP/SGP4

EPOCH          = 2025-11-15T05:16:16.336992
MEAN_MOTION    = 14.15546589
ECCENTRICITY   = .000414
INCLINATION    = 70.9828
RA_OF_ASC_NODE = 233.3065
ARG_OF_PERICENTER = 306.8735
MEAN_ANOMALY   = 53.2008

EPHEMERIS_TYPE = 0
CLASSIFICATION_TYPE = U
NORAD_CAT_ID   = 23405
ELEMENT_SET_NO = 999
REV_AT_EPOCH   = 60003
BSTAR          = .13247E-3
MEAN_MOTION_DOT = .211E-5
MEAN_MOTION_DDOT = 0

CCSDS_OMM_VERS = 2.0
CREATION_DATE  = 
ORIGINATOR     = 

OBJECT_NAME    = ARIANE 40+ R/B
OBJECT_ID      = 1995-021B
CENTER_NAME    = EARTH
REF_FRAME      = TEME
TIME_SYSTEM    = UTC
MEAN_ELEMENT_THEORY = SGP/SGP4

EPOCH          = 2025-11-15T05:09:49.939776
MEAN_MOTION    = 14.39664877
ECCENTRICITY   = .0007793
INCLINATION    = 98.4684
RA_OF_ASC_NODE = 27.1323
ARG_OF_PERICENTER = 121.2749
MEAN_ANOMALY   = 302.9589

EPHEMERIS_TYPE = 0
CLASSIFICATION_TYPE = U
NORAD_CAT_ID   = 23561
ELEMENT_SET_NO = 999
REV_AT_EPOCH   = 60277
BSTAR          = .25074E-3
MEAN_MOTION_DOT = .741E-5
MEAN_MOTION_DDOT = 0

CCSDS_OMM_VERS = 2.0
CREATION_DATE  = 
ORIGINATOR     = 

OBJECT_NAME    = SL-16 R/B
OBJECT_ID      = 1995-058B
CENTER_NAME    = EARTH
REF_FRAME      = TEME
TIME_SYSTEM    = UTC
MEAN_ELEMENT_THEORY = SGP/SGP4

EPOCH          = 2025-11-15T12:05:11.276736
MEAN_MOTION    = 14.15476623
ECCENTRICITY   = .0014972
INCLINATION    = 71.0228
RA_OF_ASC_NODE = 59.9842
ARG_OF_PERICENTER = 290.2779
MEAN_ANOMALY   = 69.6734

EPHEMERIS_TYPE = 0
CLASSIFICATION_TYPE = U
NORAD_CAT_ID   = 23705
ELEMENT_SET_NO = 999
REV_AT_EPOCH   = 55169
BSTAR          = -.41219E-4
MEAN_MOTION_DOT = -.128E-5
MEAN_MOTION_DDOT = 0

